{
  "type": "FeatureCollection",
  "features": [
    {
      "type": "Feature",
      "properties": {
        "norad_id": 32393,
        "name": "COSMOS 2434 (721)",
        "group": "gnss",
        "lat": -20.407550816716682,
        "lon": 28.20185667291837,
        "alt_km": 19140.945528061704,
        "timestamp": "2025-12-22T09:53:37.646745+00:00",
        "meta_object_name": "COSMOS 2434 (721)",
        "meta_object_id": "2007-065A",
        "meta_epoch": "2025-12-21T09:39:23.764896",
        "meta_mean_motion": 2.13101489,
        "meta_eccentricity": 0.00048181,
        "meta_inclination": 64.3157,
        "meta_ra_of_asc_node": 197.9109,
        "meta_arg_of_pericenter": 72.3225,
        "meta_mean_anomaly": 75.6648,
        "meta_ephemeris_type": 0,
        "meta_classification_type": "U",
        "meta_norad_cat_id": 32393,
        "meta_element_set_no": 999,
        "meta_rev_at_epoch": 13998,
        "meta_bstar": 0,
        "meta_mean_motion_dot": 9.7e-07,
        "meta_mean_motion_ddot": 0,
        "tle_line1": "1 32393U 07065A   25355.40235839  .00000097  00000+0  00000+0 0  9996",
        "tle_line2": "2 32393  64.3157 197.9109 0004818  72.3225  75.6648  2.13101489139981"
      },
      "geometry": {
        "type": "Point",
        "coordinates": [
          28.20185667291837,
          -20.407550816716682
        ]
      }
    },
    {
      "type": "Feature",
      "properties": {
        "norad_id": 32395,
        "name": "COSMOS 2436 (723)",
        "group": "gnss",
        "lat": -21.861748869263277,
        "lon": -173.18296136629561,
        "alt_km": 19095.83174402178,
        "timestamp": "2025-12-22T09:53:37.646756+00:00",
        "meta_object_name": "COSMOS 2436 (723)",
        "meta_object_id": "2007-065C",
        "meta_epoch": "2025-12-22T03:44:50.577216",
        "meta_mean_motion": 2.13100244,
        "meta_eccentricity": 0.0017811,
        "meta_inclination": 64.3245,
        "meta_ra_of_asc_node": 197.9558,
        "meta_arg_of_pericenter": 10.2272,
        "meta_mean_anomaly": 129.0724,
        "meta_ephemeris_type": 0,
        "meta_classification_type": "U",
        "meta_norad_cat_id": 32395,
        "meta_element_set_no": 999,
        "meta_rev_at_epoch": 13995,
        "meta_bstar": 0,
        "meta_mean_motion_dot": 9.5e-07,
        "meta_mean_motion_ddot": 0,
        "tle_line1": "1 32395U 07065C   25356.15614094  .00000095  00000+0  00000+0 0  9993",
        "tle_line2": "2 32395  64.3245 197.9558 0017811  10.2272 129.0724  2.13100244139953"
      },
      "geometry": {
        "type": "Point",
        "coordinates": [
          -173.18296136629561,
          -21.861748869263277
        ]
      }
    },
    {
      "type": "Feature",
      "properties": {
        "norad_id": 32711,
        "name": "GPS BIIRM-6 (PRN 07)",
        "group": "gnss",
        "lat": -6.326773500797436,
        "lon": -18.479658714499283,
        "alt_km": 19884.85031560574,
        "timestamp": "2025-12-22T09:53:37.646768+00:00",
        "meta_object_name": "GPS BIIRM-6 (PRN 07)",
        "meta_object_id": "2008-012A",
        "meta_epoch": "2025-12-21T15:33:12.168000",
        "meta_mean_motion": 2.00566008,
        "meta_eccentricity": 0.0202833,
        "meta_inclination": 54.478,
        "meta_ra_of_asc_node": 157.0174,
        "meta_arg_of_pericenter": 245.0506,
        "meta_mean_anomaly": 112.8153,
        "meta_ephemeris_type": 0,
        "meta_classification_type": "U",
        "meta_norad_cat_id": 32711,
        "meta_element_set_no": 999,
        "meta_rev_at_epoch": 13019,
        "meta_bstar": 0,
        "meta_mean_motion_dot": 7e-07,
        "meta_mean_motion_ddot": 0,
        "tle_line1": "1 32711U 08012A   25355.64805750  .00000070  00000+0  00000+0 0  9995",
        "tle_line2": "2 32711  54.4780 157.0174 0202833 245.0506 112.8153  2.00566008130191"
      },
      "geometry": {
        "type": "Point",
        "coordinates": [
          -18.479658714499283,
          -6.326773500797436
        ]
      }
    },
    {
      "type": "Feature",
      "properties": {
        "norad_id": 35752,
        "name": "GPS BIIRM-8 (PRN 05)",
        "group": "gnss",
        "lat": -24.522173161848738,
        "lon": -127.72296553212033,
        "alt_km": 20269.92428137168,
        "timestamp": "2025-12-22T09:53:37.646779+00:00",
        "meta_object_name": "GPS BIIRM-8 (PRN 05)",
        "meta_object_id": "2009-043A",
        "meta_epoch": "2025-12-20T02:09:52.509312",
        "meta_mean_motion": 2.00565329,
        "meta_eccentricity": 0.00516467,
        "meta_inclination": 56.096,
        "meta_ra_of_asc_node": 34.4932,
        "meta_arg_of_pericenter": 81.7821,
        "meta_mean_anomaly": 251.1308,
        "meta_ephemeris_type": 0,
        "meta_classification_type": "U",
        "meta_norad_cat_id": 35752,
        "meta_element_set_no": 999,
        "meta_rev_at_epoch": 11976,
        "meta_bstar": 0,
        "meta_mean_motion_dot": -6.1e-07,
        "meta_mean_motion_ddot": 0,
        "tle_line1": "1 35752U 09043A   25354.09019108 -.00000061  00000+0  00000+0 0  9991",
        "tle_line2": "2 35752  56.0960  34.4932 0051646  81.7821 251.1308  2.00565329119760"
      },
      "geometry": {
        "type": "Point",
        "coordinates": [
          -127.72296553212033,
          -24.522173161848738
        ]
      }
    },
    {
      "type": "Feature",
      "properties": {
        "norad_id": 36111,
        "name": "COSMOS 2456 (730)",
        "group": "gnss",
        "lat": -0.12931358634914006,
        "lon": 76.96131502456451,
        "alt_km": 19126.50433951926,
        "timestamp": "2025-12-22T09:53:37.646790+00:00",
        "meta_object_name": "COSMOS 2456 (730)",
        "meta_object_id": "2009-070A",
        "meta_epoch": "2025-12-20T03:13:18.516576",
        "meta_mean_motion": 2.13103685,
        "meta_eccentricity": 0.00033011,
        "meta_inclination": 64.904,
        "meta_ra_of_asc_node": 77.0852,
        "meta_arg_of_pericenter": 296.9564,
        "meta_mean_anomaly": 115.2996,
        "meta_ephemeris_type": 0,
        "meta_classification_type": "U",
        "meta_norad_cat_id": 36111,
        "meta_element_set_no": 999,
        "meta_rev_at_epoch": 12461,
        "meta_bstar": 0,
        "meta_mean_motion_dot": -2.2e-07,
        "meta_mean_motion_ddot": 0,
        "tle_line1": "1 36111U 09070A   25354.13424209 -.00000022  00000+0  00000+0 0  9995",
        "tle_line2": "2 36111  64.9040  77.0852 0003301 296.9564 115.2996  2.13103685124610"
      },
      "geometry": {
        "type": "Point",
        "coordinates": [
          76.96131502456451,
          -0.12931358634914006
        ]
      }
    },
    {
      "type": "Feature",
      "properties": {
        "norad_id": 36112,
        "name": "COSMOS 2457 (733)",
        "group": "gnss",
        "lat": 44.81960920478335,
        "lon": -130.85532252922692,
        "alt_km": 19115.189756562988,
        "timestamp": "2025-12-22T09:53:37.646801+00:00",
        "meta_object_name": "COSMOS 2457 (733)",
        "meta_object_id": "2009-070B",
        "meta_epoch": "2025-12-21T18:40:54.669792",
        "meta_mean_motion": 2.13101119,
        "meta_eccentricity": 0.0004535,
        "meta_inclination": 64.8903,
        "meta_ra_of_asc_node": 76.8763,
        "meta_arg_of_pericenter": 162.469,
        "meta_mean_anomaly": 200.2019,
        "meta_ephemeris_type": 0,
        "meta_classification_type": "U",
        "meta_norad_cat_id": 36112,
        "meta_element_set_no": 999,
        "meta_rev_at_epoch": 12465,
        "meta_bstar": 0,
        "meta_mean_motion_dot": -8e-08,
        "meta_mean_motion_ddot": 0,
        "tle_line1": "1 36112U 09070B   25355.77841053 -.00000008  00000+0  00000+0 0  9991",
        "tle_line2": "2 36112  64.8903  76.8763 0004535 162.4690 200.2019  2.13101119124658"
      },
      "geometry": {
        "type": "Point",
        "coordinates": [
          -130.85532252922692,
          44.81960920478335
        ]
      }
    },
    {
      "type": "Feature",
      "properties": {
        "norad_id": 36402,
        "name": "COSMOS 2460 (732)",
        "group": "gnss",
        "lat": 45.344539688465865,
        "lon": 112.99511482213185,
        "alt_km": 19130.08318027199,
        "timestamp": "2025-12-22T09:53:37.646812+00:00",
        "meta_object_name": "COSMOS 2460 (732)",
        "meta_object_id": "2010-007C",
        "meta_epoch": "2025-12-21T10:11:10.908384",
        "meta_mean_motion": 2.13106318,
        "meta_eccentricity": 0.0002509,
        "meta_inclination": 65.525,
        "meta_ra_of_asc_node": 320.48,
        "meta_arg_of_pericenter": 281.7872,
        "meta_mean_anomaly": 168.9418,
        "meta_ephemeris_type": 0,
        "meta_classification_type": "U",
        "meta_norad_cat_id": 36402,
        "meta_element_set_no": 999,
        "meta_rev_at_epoch": 12294,
        "meta_bstar": 0,
        "meta_mean_motion_dot": -4.6e-07,
        "meta_mean_motion_ddot": 0,
        "tle_line1": "1 36402U 10007C   25355.42443181 -.00000046  00000+0  00000+0 0  9999",
        "tle_line2": "2 36402  65.5250 320.4800 0002509 281.7872 168.9418  2.13106318122948"
      },
      "geometry": {
        "type": "Point",
        "coordinates": [
          112.99511482213185,
          45.344539688465865
        ]
      }
    }
  ]
}